#dP2019  3 29  0  0  0.00000000      96 __u+U ITR00 FIT  IAC
## 2046 432000.00000000   900.00000000 58571 0.0000000000000
+  102   C01C02C04C05C06C07C08C09C10C11C12C13C14C16C19C20C21
+        C28C32E01E02E03E04E05E07E08E09E11E12E13E14E15E18E19
+        E21E24E25E26E27E30E31E33E36G01G02G03G04G05G06G07G08
+        G09G10G11G12G13G14G15G16G17G18G19G20G21G22G23G24G25
+        G26G27G28G29G30G31G32J01J02J03J07R01R02R03R04R05R07
+        R08R09R10R11R13R14R15R16R17R18R19R20R21R22R23R24R26
++        11 11 11 12  9  8  8  8  8  8  8  8  8  9  0 14 19
++         0  0  5  5  5  5  5  5  5  5  5  4  5  5  5  5  5
++         5  5  5  5  5  5  5  4  5  3  3  3  4  3  3  3  3
++         3  3  3  3  3  3  4  3  3  3  3  3  3  3  3  3  3
++         3  3  3  3  3  3  3 10 10  9 15  5  5  5  5  5  5
++         5  5  5  6  5  5  5  5  5  5  5  5  5  5  5  6  8
%c M  cc GPS ccc cccc cccc cccc cccc ccccc ccccc ccccc ccccc
%c cc cc ccc ccc cccc cccc cccc cccc ccccc ccccc ccccc ccccc
%f  0.0000000  0.000000000  0.00000000000  0.000000000000000
%f  0.0000000  0.000000000  0.00000000000  0.000000000000000
%i    0    0    0    0      0      0      0      0         0
%i    0    0    0    0      0      0      0      0         0
/* INFORMATION & ANALYSIS CENTER (IAC) OF MCC   (RAPID DATA)
/* S/V CLOCKS ARE ALIGNED TO GPS & GLONASS TIME RESPECTIVELY
/* USING THE BROADCAST EPHEMERIS                            
/* PCV:IGS14_2038 OL/AL:FES2004  NONE     YN ORB:CoN CLK:CoN
*  2019 03 29 10  0  0.00000000
PC01 -32284.939886  27096.057113    863.443777    390.994403
PC02   4320.267193  41946.048064   -492.680487   -406.612319
PC04 -39619.840743  14409.635854    715.275851     33.617243
PC05  21842.041581  36035.290488   -808.570345   -174.688325
PC06 -11383.894179  21730.926390 -33959.943973    600.529269
PC07 -23359.293750  30585.580290  16804.852201     71.165118
PC08 -10905.040723  36617.821348  18222.641736    137.244265
PC09   4458.478638  28698.373027 -30249.329555    643.437487
PC10 -10877.377461  31253.721327  26047.426673   -616.117813
PC11 -19844.308247  -8577.732335  17672.608607    -74.614946
PC12 -10986.780451 -24503.350591  -7380.762509    531.563668
PC13  -2118.127383  42010.266909   4486.232109   -621.081829
PC14 -23229.687654  -7522.653577  13619.673230    722.471226
PC16  -6058.962557  23991.035642 -34123.679915   -452.652844
PC19      0.000000      0.000000      0.000000 999999.999999
PC20  24133.896600   6495.952618 -12418.063923 999999.999999
PC21  -6852.009347 -15132.289995  22444.416309    450.806647
PC28      0.000000      0.000000      0.000000 999999.999999
PC32      0.000000      0.000000      0.000000 999999.999999
PE01  23911.694523 -16368.338479   6028.241841   -572.299235
PE02 -23912.580058  16397.646668  -5997.739997     53.562904
PE03 -23339.354394   5456.146671 -17358.648234   -149.232944
PE04   4884.906966 -16432.435928  24137.045747   -250.264866
PE05 -28258.470304  -8805.341177   -352.683168     83.406058
PE07  16633.287936  17840.967102 -16765.543913   -158.344999
PE08  -4595.270204  16363.062954 -24229.289424   6381.071569
PE09 -16799.455247 -17610.605850  16845.852175   6485.779404
PE11 -10681.236924 -26804.943906   6660.477546   5712.124134
PE12   2375.836441 -26769.101064 -12425.264604   6470.935198
PE13  10688.418914  26819.895823  -6492.429223    384.857827
PE14   8289.980770  20017.175544  11465.785762   -508.761826
PE15  -2000.078428  26895.919905  12199.829326    915.610083
PE18  -1020.089898 -24197.469126 -20772.346207   -608.528070
PE19  24534.051184  -4030.007181  16064.555412     -7.435225
PE21  20483.454005    356.737418  21357.343519   -526.429692
PE24  -5364.044192 -16538.662573 -23967.822813   6160.553127
PE25 -20458.398906   -408.115815 -21389.716873   1850.988990
PE26  17201.315442  11179.784205 -21327.218276   4743.888698
PE27   4982.594761  16770.375824  23875.361272    500.863336
PE30 -13241.946488  23250.795903  12658.735929   4994.521690
PE31  13406.453099 -23306.830846 -12378.838651    870.922719
PE33  13536.272714 -11252.638627 -23787.457676    847.926140
PE36 -17166.437943 -11031.695089  21457.140806    730.742954
PG01 -13318.969066  16216.566489  15910.569456   -190.485037
PG02  14051.387876   7697.371233 -20608.264612   -175.600863
PG03 -22759.496179  12733.671088  -4833.046483    187.499279
PG04   4046.397167  19449.066879 -17619.445338    140.957665
PG05  23261.058919    209.038852 -13121.199377      1.171022
PG06   8208.270317  19525.969653 -15956.110997    243.874429
PG07  -6744.433960  25089.716857  -3879.354337      5.659790
PG08 -20636.299463  -1253.589082  16828.785746   -137.927311
PG09  -1625.005433  16987.817057 -20393.726841    437.687456
PG10  -4554.018634 -14537.505969  21810.372454     86.104182
PG11 -12480.812256  11803.227298  19775.345465   -636.528731
PG12  23879.766696 -10690.829183  -4171.578291    255.997444
PG13  21511.219950  10222.109579  11683.922343    -69.911031
PG14 -18125.135799 -19385.233935   2854.723095    -86.563978
PG15  20212.661650  -2126.541445  17033.665180   -321.166367
PG16 -24023.162496   -988.339789 -11943.695194    -28.776620
PG17  12213.399305  20853.823666  11526.645831     30.737410
PG18 -15107.953472   6616.322811  20307.633131     39.208294
PG19  17819.749672  19423.759614   2510.840369   -336.873370
PG20   5235.275540 -18389.200086  18272.906470    523.517885
PG21   1653.642183 -26579.542543    831.858663   -223.128467
PG22 -24718.650793   9038.982634   3536.389535   -673.572342
PG23 -13284.417206   8957.113049 -20913.023945   -192.268628
PG24  14445.421136 -12639.760140  18066.119295    -64.056941
PG25  15362.548129 -16467.147173 -14079.497151   -739.149039
PG26 -17033.314954  -7445.335026 -19052.320895    161.869851
PG27 -22934.592572 -10860.427493   8248.925707    -96.434741
PG28   2077.853986  14997.005764  22438.262876    766.941477
PG29   7276.713872 -13040.097408 -21993.579489    238.214948
PG30    573.691087  25455.520665   7235.568882    -76.892782
PG31  -8819.719961 -18299.839190 -16866.858439     48.806129
PG32 -15633.943806 -19761.233103   8629.276725   -158.052460
PJ01 -32373.019784  19632.358276 -13925.649922   -336.047087
PJ02 -26145.257096  32189.328795  -3389.681490      0.740323
PJ03 -26117.882987  22479.748060  29374.463986     -0.340393
PJ07 -25370.037859  33672.319290    -46.575120     -0.028796
PR01   2110.465988  11237.748678 -22798.477181     41.521583
PR02  21186.318162   7815.691492 -11771.234816    361.084858
PR03  24867.851478   -164.296391   5616.093346     -7.080158
PR04  13599.829223  -8193.537408  19976.892764    300.378134
PR05  -4610.838710 -11089.113633  22518.616220     25.045122
PR07 -24807.520396    318.969709  -5974.706338    -17.316813
PR08 -14349.351348   7873.557372 -19513.299121     18.458922
PR09  -9947.790917  -5246.904559 -22883.194976     61.601650
PR10 -16691.796112   9443.371353 -16801.776678     46.428293
PR11 -14927.104513  20657.542196    141.249463    -61.225590
PR13   8812.095805   6376.653715  23049.382912    -21.813370
PR14  16802.344712  -9623.691026  16615.866067     37.378595
PR15  15301.482722 -20390.397784    783.603783    100.960108
PR16   4461.423575 -19557.222371 -15708.545086     10.528791
PR17  12577.336401   3568.165940 -21895.830836    215.969682
PR18   4556.166318 -13459.447867 -21182.617675     38.713323
PR19  -5328.504055 -23264.178610  -9006.740877    -22.551824
PR20 -13039.251642 -19451.403360  10190.529939   -373.258981
PR21 -12315.543794  -2927.514887  22146.644027    -39.309645
PR22  -3125.825562  15410.658885  20047.906037    -11.836917
PR23   8427.497197  23731.181556   4029.438196    218.339429
PR24  13677.768849  18079.666197 -11690.943764   -178.742670
PR26 -12929.914061 -20503.379546   7926.599648      3.984372
EOF
